[{"OBJECT_NAME":"STARLINK-5988","OBJECT_ID":"2023-058D","EPOCH":"2026-02-07T00:24:49.631040","MEAN_MOTION":15.01245918,"ECCENTRICITY":0.00022461,"INCLINATION":97.6067,"RA_OF_ASC_NODE":40.1021,"ARG_OF_PERICENTER":91.7479,"MEAN_ANOMALY":268.4003,"EPHEMERIS_TYPE":0,"CLASSIFICATION_TYPE":"U","NORAD_CAT_ID":56320,"ELEMENT_SET_NO":999,"REV_AT_EPOCH":15318,"BSTAR":-0.00012307759,"MEAN_MOTION_DOT":-1.638e-5,"MEAN_MOTION_DDOT":0},{"OBJECT_NAME":"STARLINK-5876","OBJECT_ID":"2023-058E","EPOCH":"2026-02-07T00:18:23.709888","MEAN_MOTION":15.0570814,"ECCENTRICITY":0.00018586,"INCLINATION":97.6066,"RA_OF_ASC_NODE":41.0231,"ARG_OF_PERICENTER":97.2863,"MEAN_ANOMALY":262.8575,"EPHEMERIS_TYPE":0,"CLASSIFICATION_TYPE":"U","NORAD_CAT_ID":56321,"ELEMENT_SET_NO":999,"REV_AT_EPOCH":15323,"BSTAR":0.00413259,"MEAN_MOTION_DOT":0.0006017,"MEAN_MOTION_DDOT":0},{"OBJECT_NAME":"STARLINK-6033","OBJECT_ID":"2023-058F","EPOCH":"2026-02-07T00:21:47.807424","MEAN_MOTION":15.01255985,"ECCENTRICITY":0.00020061,"INCLINATION":97.6052,"RA_OF_ASC_NODE":40.1066,"ARG_OF_PERICENTER":88.1211,"MEAN_ANOMALY":272.0244,"EPHEMERIS_TYPE":0,"CLASSIFICATION_TYPE":"U","NORAD_CAT_ID":56322,"ELEMENT_SET_NO":999,"REV_AT_EPOCH":15317,"BSTAR":0.00013337281,"MEAN_MOTION_DOT":1.655e-5,"MEAN_MOTION_DDOT":0},{"OBJECT_NAME":"STARLINK-6035","OBJECT_ID":"2023-058G","EPOCH":"2026-02-07T00:11:08.016288","MEAN_MOTION":15.0126443,"ECCENTRICITY":0.00032841,"INCLINATION":97.6056,"RA_OF_ASC_NODE":40.1218,"ARG_OF_PERICENTER":64.431,"MEAN_ANOMALY":295.7253,"EPHEMERIS_TYPE":0,"CLASSIFICATION_TYPE":"U","NORAD_CAT_ID":56323,"ELEMENT_SET_NO":999,"REV_AT_EPOCH":15316,"BSTAR":-6.6387219e-5,"MEAN_MOTION_DOT":-9.11e-6,"MEAN_MOTION_DDOT":0},{"OBJECT_NAME":"STARLINK-6034","OBJECT_ID":"2023-058H","EPOCH":"2026-02-06T23:58:28.052256","MEAN_MOTION":15.05643966,"ECCENTRICITY":0.00015567,"INCLINATION":97.605,"RA_OF_ASC_NODE":41.0389,"ARG_OF_PERICENTER":82.6986,"MEAN_ANOMALY":277.4418,"EPHEMERIS_TYPE":0,"CLASSIFICATION_TYPE":"U","NORAD_CAT_ID":56324,"ELEMENT_SET_NO":999,"REV_AT_EPOCH":15323,"BSTAR":-1.5420645e-5,"MEAN_MOTION_DOT":-2.83e-6,"MEAN_MOTION_DDOT":0},{"OBJECT_NAME":"STARLINK-5981","OBJECT_ID":"2023-058J","EPOCH":"2026-02-07T00:00:27.816480","MEAN_MOTION":15.01261635,"ECCENTRICITY":0.00020765,"INCLINATION":97.6049,"RA_OF_ASC_NODE":40.1281,"ARG_OF_PERICENTER":61.9023,"MEAN_ANOMALY":298.2411,"EPHEMERIS_TYPE":0,"CLASSIFICATION_TYPE":"U","NORAD_CAT_ID":56325,"ELEMENT_SET_NO":999,"REV_AT_EPOCH":15352,"BSTAR":-0.00013339727,"MEAN_MOTION_DOT":-1.771e-5,"MEAN_MOTION_DDOT":0},{"OBJECT_NAME":"STARLINK-5980","OBJECT_ID":"2023-058K","EPOCH":"2026-02-07T00:14:09.000096","MEAN_MOTION":15.01254875,"ECCENTRICITY":0.00028763,"INCLINATION":97.6043,"RA_OF_ASC_NODE":40.1134,"ARG_OF_PERICENTER":68.4213,"MEAN_ANOMALY":291.7318,"EPHEMERIS_TYPE":0,"CLASSIFICATION_TYPE":"U","NORAD_CAT_ID":56326,"ELEMENT_SET_NO":999,"REV_AT_EPOCH":15317,"BSTAR":-6.76141e-5,"MEAN_MOTION_DOT":-9.27e-6,"MEAN_MOTION_DDOT":0},{"OBJECT_NAME":"STARLINK-5997","OBJECT_ID":"2023-058L","EPOCH":"2026-02-07T06:16:43.938624","MEAN_MOTION":15.01258633,"ECCENTRICITY":0.00022061,"INCLINATION":97.6044,"RA_OF_ASC_NODE":40.3959,"ARG_OF_PERICENTER":65.6801,"MEAN_ANOMALY":294.4654,"EPHEMERIS_TYPE":0,"CLASSIFICATION_TYPE":"U","NORAD_CAT_ID":56327,"ELEMENT_SET_NO":999,"REV_AT_EPOCH":15356,"BSTAR":-5.566097e-6,"MEAN_MOTION_DOT":-1.3e-6,"MEAN_MOTION_DDOT":0},{"OBJECT_NAME":"STARLINK-5992","OBJECT_ID":"2023-058M","EPOCH":"2026-02-06T23:14:35.414016","MEAN_MOTION":15.05646489,"ECCENTRICITY":0.0001533,"INCLINATION":97.6046,"RA_OF_ASC_NODE":40.9255,"ARG_OF_PERICENTER":67.6819,"MEAN_ANOMALY":292.457,"EPHEMERIS_TYPE":0,"CLASSIFICATION_TYPE":"U","NORAD_CAT_ID":56328,"ELEMENT_SET_NO":999,"REV_AT_EPOCH":15357,"BSTAR":4.309e-5,"MEAN_MOTION_DOT":5.61e-6,"MEAN_MOTION_DDOT":0},{"OBJECT_NAME":"STARLINK-5984","OBJECT_ID":"2023-058N","EPOCH":"2026-02-07T00:30:21.258432","MEAN_MOTION":15.05642558,"ECCENTRICITY":0.00017965,"INCLINATION":97.6052,"RA_OF_ASC_NODE":41.0086,"ARG_OF_PERICENTER":46.3881,"MEAN_ANOMALY":313.7494,"EPHEMERIS_TYPE":0,"CLASSIFICATION_TYPE":"U","NORAD_CAT_ID":56329,"ELEMENT_SET_NO":999,"REV_AT_EPOCH":15358,"BSTAR":-5.9064683e-5,"MEAN_MOTION_DOT":-9.13e-6,"MEAN_MOTION_DDOT":0},{"OBJECT_NAME":"STARLINK-5991","OBJECT_ID":"2023-058Q","EPOCH":"2026-02-07T06:13:42.529728","MEAN_MOTION":15.01260155,"ECCENTRICITY":0.0002164,"INCLINATION":97.6043,"RA_OF_ASC_NODE":40.3977,"ARG_OF_PERICENTER":56.2358,"MEAN_ANOMALY":303.9073,"EPHEMERIS_TYPE":0,"CLASSIFICATION_TYPE":"U","NORAD_CAT_ID":56331,"ELEMENT_SET_NO":999,"REV_AT_EPOCH":15356,"BSTAR":3.304284e-6,"MEAN_MOTION_DOT":-1.6e-7,"MEAN_MOTION_DDOT":0},{"OBJECT_NAME":"STARLINK-5093","OBJECT_ID":"2023-058R","EPOCH":"2026-02-07T00:05:48.404544","MEAN_MOTION":15.0126213,"ECCENTRICITY":0.0003863,"INCLINATION":97.605,"RA_OF_ASC_NODE":40.1244,"ARG_OF_PERICENTER":39.8049,"MEAN_ANOMALY":320.3458,"EPHEMERIS_TYPE":0,"CLASSIFICATION_TYPE":"U","NORAD_CAT_ID":56332,"ELEMENT_SET_NO":999,"REV_AT_EPOCH":15352,"BSTAR":0.0001429313,"MEAN_MOTION_DOT":1.778e-5,"MEAN_MOTION_DDOT":0},{"OBJECT_NAME":"STARLINK-5553","OBJECT_ID":"2023-058S","EPOCH":"2026-02-06T23:34:31.564992","MEAN_MOTION":15.05646549,"ECCENTRICITY":0.0002389,"INCLINATION":97.6055,"RA_OF_ASC_NODE":40.9091,"ARG_OF_PERICENTER":84.8106,"MEAN_ANOMALY":275.3393,"EPHEMERIS_TYPE":0,"CLASSIFICATION_TYPE":"U","NORAD_CAT_ID":56333,"ELEMENT_SET_NO":999,"REV_AT_EPOCH":15357,"BSTAR":-1.2719e-5,"MEAN_MOTION_DOT":-2.44e-6,"MEAN_MOTION_DDOT":0},{"OBJECT_NAME":"STARLINK-5548","OBJECT_ID":"2023-058T","EPOCH":"2026-02-06T23:54:29.742912","MEAN_MOTION":15.05646296,"ECCENTRICITY":0.0002262,"INCLINATION":97.6062,"RA_OF_ASC_NODE":41.0438,"ARG_OF_PERICENTER":86.252,"MEAN_ANOMALY":273.8965,"EPHEMERIS_TYPE":0,"CLASSIFICATION_TYPE":"U","NORAD_CAT_ID":56334,"ELEMENT_SET_NO":999,"REV_AT_EPOCH":15358,"BSTAR":0.00030076,"MEAN_MOTION_DOT":4.281e-5,"MEAN_MOTION_DDOT":0},{"OBJECT_NAME":"STARLINK-5559","OBJECT_ID":"2023-058U","EPOCH":"2026-02-07T00:14:24.743904","MEAN_MOTION":15.05645732,"ECCENTRICITY":0.00018301,"INCLINATION":97.6058,"RA_OF_ASC_NODE":41.0257,"ARG_OF_PERICENTER":91.532,"MEAN_ANOMALY":268.6117,"EPHEMERIS_TYPE":0,"CLASSIFICATION_TYPE":"U","NORAD_CAT_ID":56335,"ELEMENT_SET_NO":999,"REV_AT_EPOCH":15358,"BSTAR":9.4919098e-5,"MEAN_MOTION_DOT":1.309e-5,"MEAN_MOTION_DDOT":0},{"OBJECT_NAME":"STARLINK-5562","OBJECT_ID":"2023-058V","EPOCH":"2026-02-06T23:55:07.847040","MEAN_MOTION":15.01257567,"ECCENTRICITY":0.0003227,"INCLINATION":97.6044,"RA_OF_ASC_NODE":40.1327,"ARG_OF_PERICENTER":52.875,"MEAN_ANOMALY":307.2769,"EPHEMERIS_TYPE":0,"CLASSIFICATION_TYPE":"U","NORAD_CAT_ID":56336,"ELEMENT_SET_NO":999,"REV_AT_EPOCH":15352,"BSTAR":-3.6902e-5,"MEAN_MOTION_DOT":-5.32e-6,"MEAN_MOTION_DDOT":0}]
