STARLINK-5988           
1 56320U 23058D   26038.01724110 -.00001638  00000+0 -12308-3 0  9995
2 56320  97.6067  40.1021 0002246  91.7479 268.4003 15.01245918153189
STARLINK-5876           
1 56321U 23058E   26038.01277442  .00060170  00000+0  41326-2 0  9992
2 56321  97.6066  41.0231 0001858  97.2863 262.8575 15.05708140153231
STARLINK-6033           
1 56322U 23058F   26038.01513666  .00001655  00000+0  13337-3 0  9999
2 56322  97.6052  40.1066 0002006  88.1211 272.0244 15.01255985153174
STARLINK-6035           
1 56323U 23058G   26038.00773167 -.00000911  00000+0 -66387-4 0  9993
2 56323  97.6056  40.1218 0003284  64.4310 295.7253 15.01264430153160
STARLINK-6034           
1 56324U 23058H   26037.99893579 -.00000283  00000+0 -15421-4 0  9996
2 56324  97.6050  41.0389 0001556  82.6986 277.4418 15.05643966153232
STARLINK-5981           
1 56325U 23058J   26038.00032195 -.00001771  00000+0 -13340-3 0  9999
2 56325  97.6049  40.1281 0002076  61.9023 298.2411 15.01261635153523
STARLINK-5980           
1 56326U 23058K   26038.00982639 -.00000927  00000+0 -67614-4 0  9993
2 56326  97.6043  40.1134 0002876  68.4213 291.7318 15.01254875153179
STARLINK-5997           
1 56327U 23058L   26038.26161966 -.00000130  00000+0 -55661-5 0  9990
2 56327  97.6044  40.3959 0002206  65.6801 294.4654 15.01258633153569
STARLINK-5992           
1 56328U 23058M   26037.96846544  .00000561  00000+0  43090-4 0  9997
2 56328  97.6046  40.9255 0001533  67.6819 292.4570 15.05646489153570
STARLINK-5984           
1 56329U 23058N   26038.02107938 -.00000913  00000+0 -59065-4 0  9995
2 56329  97.6052  41.0086 0001796  46.3881 313.7494 15.05642558153582
STARLINK-5991           
1 56331U 23058Q   26038.25952002 -.00000016  00000+0  33043-5 0  9995
2 56331  97.6043  40.3977 0002164  56.2358 303.9073 15.01260155153562
STARLINK-5093           
1 56332U 23058R   26038.00403246  .00001778  00000+0  14293-3 0  9999
2 56332  97.6050  40.1244 0003863  39.8049 320.3458 15.01262130153528
STARLINK-5553           
1 56333U 23058S   26037.98230978 -.00000244  00000+0 -12719-4 0  9997
2 56333  97.6055  40.9091 0002389  84.8106 275.3393 15.05646549153574
STARLINK-5548           
1 56334U 23058T   26037.99617758  .00004281  00000+0  30076-3 0  9992
2 56334  97.6062  41.0438 0002262  86.2520 273.8965 15.05646296153584
STARLINK-5559           
1 56335U 23058U   26038.01000861  .00001309  00000+0  94919-4 0  9993
2 56335  97.6058  41.0257 0001830  91.5320 268.6117 15.05645732153581
STARLINK-5562           
1 56336U 23058V   26037.99661860 -.00000532  00000+0 -36902-4 0  9999
2 56336  97.6044  40.1327 0003227  52.8750 307.2769 15.01257567153522
